IRIDIUM 119             
1 42959U 17061E   23253.52972180  .00000156  00000+0  48653-4 0  9994
2 42959  86.3915  87.6299 0002344  86.1774 273.9689 14.34216256309954
IRIDIUM 107             
1 42960U 17061F   23253.54874470  .00000177  00000+0  56305-4 0  9997
2 42960  86.3912  87.6371 0002240  82.4276 277.7174 14.34218224309964
IRIDIUM 132             
1 42961U 17061G   23253.55509028  .00000114  00000+0  33563-4 0  9995
2 42961  86.3911  87.6205 0002297  85.2325 274.9133 14.34215641309962
IRIDIUM 136             
1 42962U 17061H   23253.58680388  .00000110  00000+0  32202-4 0  9993
2 42962  86.3913  87.6093 0002249  92.4612 267.6841 14.34217678309985
IRIDIUM 139             
1 42963U 17061J   23253.59313147  .00000133  00000+0  40308-4 0  9992
2 42963  86.3914  87.6529 0002242  84.1577 275.9874 14.34216276309994
IRIDIUM 125             
1 42964U 17061K   23253.58045773  .00000072  00000+0  18515-4 0  9996
2 42964  86.3917  87.7008 0002291  85.0461 275.0997 14.34217663310009
IRIDIUM 135             
1 43070U 17083A   23253.41504155  .00000418  00000+0  14230-3 0  9998
2 43070  86.4002  24.4351 0001765  89.4418 270.6980 14.34217331299278
IRIDIUM 138             
1 43071U 17083B   23253.44040737  .00000479  00000+0  16412-3 0  9994
2 43071  86.3992  24.1771 0002275  92.7247 267.4209 14.34218684299262
